OBJECT_NAME,OBJECT_ID,EPOCH,MEAN_MOTION,ECCENTRICITY,INCLINATION,RA_OF_ASC_NODE,ARG_OF_PERICENTER,MEAN_ANOMALY,EPHEMERIS_TYPE,CLASSIFICATION_TYPE,NORAD_CAT_ID,ELEMENT_SET_NO,REV_AT_EPOCH,BSTAR,MEAN_MOTION_DOT,MEAN_MOTION_DDOT
STARLINK-37886,2026-157A,2026-07-16T14:00:01.999872,15.86610832,.00010949,53.1604,288.9020,45.3282,24.7386,0,U,69943,999,237,-.92314264E-2,-.206908E-1,0
STARLINK-37937,2026-157B,2026-07-16T14:00:01.999872,15.86531660,.00010544,53.1603,288.8988,55.6251,15.9301,0,U,69944,999,237,-.7699533E-2,-.1724437E-1,0
STARLINK-37903,2026-157C,2026-07-16T14:00:01.999872,15.87180738,.00011567,53.1603,288.8793,51.6267,29.3187,0,U,69945,999,237,-.89468622E-2,-.2063995E-1,0
STARLINK-37905,2026-157D,2026-07-16T14:00:01.999872,15.87991847,.00011726,53.1602,288.8479,55.5867,40.4033,0,U,69946,999,237,-.85691867E-2,-.2059756E-1,0
STARLINK-37904,2026-157E,2026-07-16T14:00:01.999872,15.88177985,.00010502,53.1601,288.8425,51.8963,46.8052,0,U,69947,999,237,-.84228615E-2,-.2045781E-1,0
STARLINK-37891,2026-157F,2026-07-16T14:00:01.999872,15.88267722,.00011031,53.1600,288.8344,60.3347,42.2798,0,U,69948,999,237,-.84404341E-2,-.205754E-1,0
STARLINK-37923,2026-157G,2026-07-16T14:00:01.999872,15.88945758,.00011898,53.1600,288.8069,58.8628,56.9358,0,U,69949,999,237,-.8205985E-2,-.2068756E-1,0
STARLINK-37895,2026-157H,2026-07-16T14:00:01.999872,15.89224996,.00011581,53.1598,288.7950,66.6322,54.9047,0,U,69950,999,237,-.8114255E-2,-.2074087E-1,0
STARLINK-37841,2026-157J,2026-07-16T14:00:01.999872,15.89657509,.0001149,53.1597,288.7786,60.0050,69.4428,0,U,69951,999,237,-.79355306E-2,-.2073895E-1,0
STARLINK-37899,2026-157K,2026-07-16T14:00:01.999872,15.90096938,.00011697,53.1598,288.7603,64.0707,74.1240,0,U,69952,999,237,-.77711595E-2,-.2076964E-1,0
STARLINK-37900,2026-157L,2026-07-16T14:00:01.999872,15.90241544,.00012378,53.1597,288.7549,60.8084,79.9780,0,U,69953,999,237,-.76511233E-2,-.2062625E-1,0
STARLINK-37882,2026-157M,2026-07-16T14:00:01.999872,15.90672004,.00012465,53.1596,288.7392,59.5423,88.7368,0,U,69954,999,237,-.74458751E-2,-.2340766E-1,.14439247E-2
STARLINK-37928,2026-157N,2026-07-16T14:00:01.999872,15.90596379,.00012677,53.1596,288.7361,59.9944,89.9010,0,U,69955,999,237,-.75588064E-2,-.2073798E-1,0
STARLINK-37824,2026-157P,2026-07-16T14:00:01.999872,15.90642193,.00012488,53.1596,288.7343,63.0498,87.6852,0,U,69956,999,237,-.74576954E-2,-.2340912E-1,.14436522E-2
STARLINK-37919,2026-157Q,2026-07-16T14:00:01.999872,15.90611027,.00011522,53.1597,288.7315,67.4661,84.6197,0,U,69957,999,237,-.75177979E-2,-.2065309E-1,0
STARLINK-37964,2026-157R,2026-07-16T14:00:01.999872,15.90912575,.00010835,53.1596,288.7224,65.1474,91.2770,0,U,69958,999,237,-.7322335E-2,-.2330514E-1,.14354586E-2
STARLINK-37907,2026-157S,2026-07-16T14:00:01.999872,15.91298199,.00011368,53.1598,288.7092,62.0252,100.7481,0,U,69959,999,237,-.7150552E-2,-.2321474E-1,.14305782E-2
STARLINK-37901,2026-157T,2026-07-16T14:00:01.999872,15.91486218,.00009854,53.1593,288.6997,66.5101,100.8545,0,U,69960,999,237,-.60140813E-2,-.1975448E-1,.10576495E-2
STARLINK-37910,2026-157U,2026-07-16T14:00:01.999872,15.91819805,.00011404,53.1595,288.6855,68.1273,106.0402,0,U,69961,999,237,-.69403122E-2,-.2314793E-1,.14305131E-2
STARLINK-37925,2026-157V,2026-07-16T14:00:01.999872,15.91851491,.00011411,53.1595,288.6819,64.5524,111.3520,0,U,69962,999,237,-.69323506E-2,-.2315923E-1,.14323223E-2
STARLINK-37931,2026-157W,2026-07-16T14:00:01.999872,15.91882472,.00011849,53.1595,288.6749,68.2754,111.0640,0,U,69963,999,237,-.69972063E-2,-.2341085E-1,.14626665E-2
STARLINK-37914,2026-157X,2026-07-16T14:00:01.999872,15.92596158,.00012103,53.1594,288.6505,70.9962,120.0210,0,U,69964,999,237,-.70983046E-2,-.2463594E-1,.16258202E-2
STARLINK-37840,2026-157Y,2026-07-16T14:00:01.999872,15.92485006,.0000974,53.1594,288.6396,61.5271,134.6913,0,U,69965,999,237,-.25805157E-2,-.900979E-2,.25466792E-3
STARLINK-37894,2026-157Z,2026-07-16T14:00:01.999872,15.92791478,.00011051,53.1592,288.6350,75.5603,122.8472,0,U,69966,999,237,-.67498129E-2,-.2367547E-1,.15090512E-2
STARLINK-37875,2026-157AA,2026-07-16T14:00:01.999872,15.93164157,.00011733,53.1591,288.6213,71.9893,132.9146,0,U,69967,999,237,-.65881594E-2,-.2356625E-1,.15017433E-2
STARLINK-36218,2026-157AB,2026-07-16T14:00:01.999872,15.93715257,.00011733,53.1589,288.6073,67.6835,143.8346,0,U,69968,999,202,-.62443701E-2,-.2300138E-1,.14420941E-2
STARLINK-37921,2026-157AC,2026-07-16T14:00:01.999872,15.94301268,.00012098,53.1590,288.5813,81.7871,142.1594,0,U,69969,999,238,-.60902934E-2,-.2314194E-1,.14683617E-2
STARLINK-37896,2026-157AD,2026-07-16T14:00:01.999872,15.94294098,.00012078,53.1589,288.5781,80.5899,144.7856,0,U,69970,999,238,-.61259528E-2,-.2326728E-1,.14835437E-2
STARLINK-37922,2026-157AE,2026-07-16T14:00:01.999872,15.94312076,.00011655,53.1589,288.5763,75.4358,150.8448,0,U,69971,999,238,-.608159E-2,-.2312227E-1,.14661436E-2
