STARLINK-37886          
1 69943U 26157A   26197.58335648 -.02069080  00000+0 -92314-2 0  9996
2 69943  53.1604 288.9020 0001094  45.3282  24.7386 15.86610832  2371
STARLINK-37937          
1 69944U 26157B   26197.58335648 -.01724437  00000+0 -76995-2 0  9997
2 69944  53.1603 288.8988 0001054  55.6251  15.9301 15.86531660  2379
STARLINK-37903          
1 69945U 26157C   26197.58335648 -.02063995  00000+0 -89469-2 0  9994
2 69945  53.1603 288.8793 0001156  51.6267  29.3187 15.87180738  2378
STARLINK-37905          
1 69946U 26157D   26197.58335648 -.02059756  00000+0 -85692-2 0  9999
2 69946  53.1602 288.8479 0001172  55.5867  40.4033 15.87991847  2371
STARLINK-37904          
1 69947U 26157E   26197.58335648 -.02045781  00000+0 -84229-2 0  9998
2 69947  53.1601 288.8425 0001050  51.8963  46.8052 15.88177985  2374
STARLINK-37891          
1 69948U 26157F   26197.58335648 -.02057540  00000+0 -84404-2 0  9990
2 69948  53.1600 288.8344 0001103  60.3347  42.2798 15.88267722  2370
STARLINK-37923          
1 69949U 26157G   26197.58335648 -.02068756  00000+0 -82060-2 0  9998
2 69949  53.1600 288.8069 0001189  58.8628  56.9358 15.88945758  2379
STARLINK-37895          
1 69950U 26157H   26197.58335648 -.02074087  00000+0 -81143-2 0  9995
2 69950  53.1598 288.7950 0001158  66.6322  54.9047 15.89224996  2377
STARLINK-37841          
1 69951U 26157J   26197.58335648 -.02073895  00000+0 -79355-2 0  9994
2 69951  53.1597 288.7786 0001149  60.0050  69.4428 15.89657509  2374
STARLINK-37899          
1 69952U 26157K   26197.58335648 -.02076964  00000+0 -77712-2 0  9990
2 69952  53.1598 288.7603 0001169  64.0707  74.1240 15.90096938  2379
STARLINK-37900          
1 69953U 26157L   26197.58335648 -.02062625  00000+0 -76511-2 0  9996
2 69953  53.1597 288.7549 0001237  60.8084  79.9780 15.90241544  2373
STARLINK-37882          
1 69954U 26157M   26197.58335648 -.02340766  14439-2 -74459-2 0  9995
2 69954  53.1596 288.7392 0001246  59.5423  88.7368 15.90672004  2370
STARLINK-37928          
1 69955U 26157N   26197.58335648 -.02073798  00000+0 -75588-2 0  9994
2 69955  53.1596 288.7361 0001267  59.9944  89.9010 15.90596379  2379
STARLINK-37824          
1 69956U 26157P   26197.58335648 -.02340912  14437-2 -74577-2 0  9999
2 69956  53.1596 288.7343 0001248  63.0498  87.6852 15.90642193  2374
STARLINK-37919          
1 69957U 26157Q   26197.58335648 -.02065309  00000+0 -75178-2 0  9990
2 69957  53.1597 288.7315 0001152  67.4661  84.6197 15.90611027  2370
STARLINK-37964          
1 69958U 26157R   26197.58335648 -.02330514  14355-2 -73223-2 0  9994
2 69958  53.1596 288.7224 0001083  65.1474  91.2770 15.90912575  2372
STARLINK-37907          
1 69959U 26157S   26197.58335648 -.02321474  14306-2 -71506-2 0  9998
2 69959  53.1598 288.7092 0001136  62.0252 100.7481 15.91298199  2372
STARLINK-37901          
1 69960U 26157T   26197.58335648 -.01975448  10576-2 -60141-2 0  9993
2 69960  53.1593 288.6997 0000985  66.5101 100.8545 15.91486218  2378
STARLINK-37910          
1 69961U 26157U   26197.58335648 -.02314793  14305-2 -69403-2 0  9999
2 69961  53.1595 288.6855 0001140  68.1273 106.0402 15.91819805  2378
STARLINK-37925          
1 69962U 26157V   26197.58335648 -.02315923  14323-2 -69324-2 0  9998
2 69962  53.1595 288.6819 0001141  64.5524 111.3520 15.91851491  2376
STARLINK-37931          
1 69963U 26157W   26197.58335648 -.02341085  14627-2 -69972-2 0  9993
2 69963  53.1595 288.6749 0001184  68.2754 111.0640 15.91882472  2375
STARLINK-37914          
1 69964U 26157X   26197.58335648 -.02463594  16258-2 -70983-2 0  9990
2 69964  53.1594 288.6505 0001210  70.9962 120.0210 15.92596158  2373
STARLINK-37840          
1 69965U 26157Y   26197.58335648 -.00900979  25467-3 -25805-2 0  9998
2 69965  53.1594 288.6396 0000974  61.5271 134.6913 15.92485006  2377
STARLINK-37894          
1 69966U 26157Z   26197.58335648 -.02367547  15091-2 -67498-2 0  9994
2 69966  53.1592 288.6350 0001105  75.5603 122.8472 15.92791478  2379
STARLINK-37875          
1 69967U 26157AA  26197.58335648 -.02356625  15017-2 -65882-2 0  9993
2 69967  53.1591 288.6213 0001173  71.9893 132.9146 15.93164157  2372
STARLINK-36218          
1 69968U 26157AB  26197.58335648 -.02300138  14421-2 -62444-2 0  9991
2 69968  53.1589 288.6073 0001173  67.6835 143.8346 15.93715257  2020
STARLINK-37921          
1 69969U 26157AC  26197.58335648 -.02314194  14684-2 -60903-2 0  9998
2 69969  53.1590 288.5813 0001209  81.7871 142.1594 15.94301268  2381
STARLINK-37896          
1 69970U 26157AD  26197.58335648 -.02326728  14835-2 -61260-2 0  9991
2 69970  53.1589 288.5781 0001207  80.5899 144.7856 15.94294098  2381
STARLINK-37922          
1 69971U 26157AE  26197.58335648 -.02312227  14661-2 -60816-2 0  9994
2 69971  53.1589 288.5763 0001165  75.4358 150.8448 15.94312076  2380
